[{"OBJECT_NAME":"ICEYE-X26","OBJECT_ID":"2023-084AF","EPOCH":"2026-03-09T22:36:43.632288","MEAN_MOTION":15.73279775,"ECCENTRICITY":9.181e-5,"INCLINATION":97.5771,"RA_OF_ASC_NODE":224.5701,"ARG_OF_PERICENTER":250.447,"MEAN_ANOMALY":109.6694,"EPHEMERIS_TYPE":0,"CLASSIFICATION_TYPE":"U","NORAD_CAT_ID":56961,"ELEMENT_SET_NO":999,"REV_AT_EPOCH":15354,"BSTAR":0.00052391916,"MEAN_MOTION_DOT":0.00072488,"MEAN_MOTION_DDOT":0},{"OBJECT_NAME":"STARLINK-36878","OBJECT_ID":"2026-035W","EPOCH":"2026-03-09T22:00:01.999584","MEAN_MOTION":15.8675758,"ECCENTRICITY":0.00014951,"INCLINATION":97.2671,"RA_OF_ASC_NODE":1.2894,"ARG_OF_PERICENTER":99.5198,"MEAN_ANOMALY":29.0422,"EPHEMERIS_TYPE":0,"CLASSIFICATION_TYPE":"U","NORAD_CAT_ID":67899,"ELEMENT_SET_NO":999,"REV_AT_EPOCH":379,"BSTAR":-0.0063599641,"MEAN_MOTION_DOT":-0.01408602,"MEAN_MOTION_DDOT":0}]
